OSCAR 7 (AO-7)          
1 07530U 74089B   26169.91089187 -.00000049  00000+0 -18686-4 0  9997
2 07530 101.9899 183.1756 0012590 126.8898 350.3198 12.53698120360739
PHASE 3B (AO-10)        
1 14129U 83058B   26168.36952042  .00000190  00000+0  00000+0 0  9993
2 14129  25.9123 219.5345 6010777 115.7182 316.6307  2.05868747295495
UOSAT 2 (UO-11)         
1 14781U 84021B   26169.63090030  .00000953  00000+0  10259-3 0  9997
2 14781  97.8058 135.1893 0007789 167.6265 192.5146 14.90786318257340
LUSAT (LO-19)           
1 20442U 90005G   26169.50756887  .00000077  00000+0  44240-4 0  9997
2 20442  98.8849 191.3496 0011194 197.0729 163.0080 14.34123547902580
EYESAT A (AO-27)        
1 22825U 93061C   26169.88781954  .00000070  00000+0  43649-4 0  9998
2 22825  98.6880 237.3008 0009543  95.4038 264.8233 14.30942656707241
ITAMSAT (IO-26)         
1 22826U 93061D   26169.93662784  .00000073  00000+0  44406-4 0  9999
2 22826  98.6828 237.2672 0010056  80.4772 279.7547 14.31369599707568
RADIO ROSTO (RS15)      
1 23439U 94085A   26169.88976285 -.00000040  00000+0  76511-4 0  9992
2 23439  64.8186 300.4624 0155990   3.5616 356.6381 11.27583456296095
JAS-2 (FO-29)           
1 24278U 96046B   26169.86373957 -.00000009  00000+0  23419-4 0  9992
2 24278  98.5238  18.5062 0350920  92.0938 272.0420 13.53274506473391
TECHSAT 1B (GO-32)      
1 25397U 98043D   26169.89070767  .00000034  00000+0  34783-4 0  9993
2 25397  99.0067 162.6924 0001138 159.5485 200.5739 14.24428674451579
ISS (ZARYA)             
1 25544U 98067A   26169.80206886  .00008155  00000+0  15439-3 0  9995
2 25544  51.6331 292.1003 0004666 202.2920 157.7867 15.49302471572008
PCSAT (NO-44)           
1 26931U 01043C   26169.90544912  .00000072  00000+0  57697-4 0  9993
2 26931  67.0504 239.8278 0006069 264.7247  95.3163 14.31956625290692
SAUDISAT 1C (SO-50)     
1 27607U 02058C   26169.97596767  .00000773  00000+0  10866-3 0  9997
2 27607  64.5512 123.4505 0075180 262.1401  97.1166 14.83050375264721
CUTE-1 (CO-55)          
1 27844U 03031E   26169.93387239  .00000210  00000+0  10966-3 0  9997
2 27844  98.6735 178.4708 0009656 172.9759 187.1557 14.24336606191927
CUBESAT XI-IV (CO-57)   
1 27848U 03031J   26169.92320627  .00000172  00000+0  94753-4 0  9992
2 27848  98.6765 178.1715 0009140 191.7752 168.3214 14.23621597191622
MOZHAETS 4 (RS22)       
1 27939U 03042A   26169.99570399  .00001104  00000+0  17830-3 0  9991
2 27939  98.3465 354.4051 0009927 263.5224 253.0311 14.73471447215814
CUBESAT XI-V            
1 28895U 05043F   26169.96537174  .00001071  00000+0  17623-3 0  9990
2 28895  98.2987 325.6244 0013771 194.9475 165.1327 14.72635479102018
CUTE-1.7+APD II (CO-65) 
1 32785U 08021C   26169.90603696  .00004403  00000+0  27890-3 0  9998
2 32785  97.8275 151.3603 0009576  33.3397 326.8433 15.09464113985453
SEEDS II (CO-66)        
1 32791U 08021J   26169.44123302  .00014056  00000+0  44622-3 0  9992
2 32791  97.7517 167.3987 0000890 357.5135   2.6101 15.32786684987483
YUBILEINY (RS30)        
1 32953U 08025A   26169.94945740 -.00000022  00000+0 -22693-3 0  9993
2 32953  82.5038 354.3433 0018772 309.8261  50.1167 12.43179362819915
KKS-1 (KISEKI)          
1 33499U 09002H   26169.94325072  .00000999  00000+0  12938-3 0  9997
2 33499  98.1189  92.4134 0006455 289.0735  70.9779 14.83127787936457
SWISSCUBE               
1 35932U 09051B   26169.74226071  .00000745  00000+0  15677-3 0  9994
2 35932  98.4034  77.6577 0006063 197.6452 162.4539 14.62484142889382
BEESAT-1                
1 35933U 09051C   26169.68405163  .00000636  00000+0  13739-3 0  9995
2 35933  98.3962  77.2309 0004309 211.2919 148.8026 14.61722602889400
ITUPSAT1                
1 35935U 09051E   26169.19666220  .00000591  00000+0  13197-3 0  9994
2 35935  98.4047  75.9267 0006285 230.1057 129.9590 14.60442029888881
XIWANG-1 (HOPE-1)       
1 36122U 09072B   26169.91586206  .00000416  00000+0  12051-2 0  9994
2 36122 100.4033 123.7210 0006887 227.2406 132.8128 13.16440899793239
O/OREOS (USA 219)       
1 37224U 10062C   26169.80342158  .00001725  00000+0  16849-3 0  9997
2 37224  71.9701  76.6784 0012602  59.6862 300.5554 14.93749943116889
JUGNU                   
1 37839U 11058B   26169.70142229  .00000394  00000+0  66297-4 0  9995
2 37839  19.9619 299.2304 0018626  92.8225 295.0564 14.13777162759244
SRMSAT                  
1 37841U 11058D   26169.98131097  .00000356  00000+0  49105-4 0  9996
2 37841  19.9727  48.6073 0011756 223.4151 164.4709 14.11575904758071
STRAND-1                
1 39090U 13009E   26169.72693089  .00000194  00000+0  79602-4 0  9993
2 39090  98.3923 349.9234 0007803 220.1282 139.9329 14.37163972697287
ZACUBE-1 (TSHEPISOSAT)  
1 39417U 13066B   26169.94035917  .00002284  00000+0  17989-3 0  9994
2 39417  97.8075 132.2864 0041028 241.6550 118.0533 15.01196295680998
GOMX-1                  
1 39430U 13066Q   26169.95638690  .00001676  00000+0  25582-3 0  9999
2 39430  97.6474  10.3072 0130146  71.8990 289.6342 14.69466703670171
